NORAD_CAT_ID,OBJECT_NAME,OBJECT_TYPE,EPOCH,MEAN_MOTION,ECCENTRICITY,INCLINATION,RA_OF_ASC_NODE,ARG_OF_PERICENTER,MEAN_ANOMALY,BSTAR,MEAN_MOTION_DOT,MEAN_MOTION_DDOT,TLE_LINE0,TLE_LINE1,TLE_LINE2,SEMIMAJOR_AXIS,PERIOD,APOGEE,PERIGEE,DECAYED
50815.0,STARLINK-3234,PAYLOAD,2022-10-19 13:14:20,15.08854847,0.000258,53.2181,322.8555,36.2022,323.9144,0.00083741,0.0001307,0.0,0 STARLINK-3234,1 50815U 22001N   22292.55162331  .00013070  00000-0  83741-3 0  9994,2 50815  53.2181 322.8555 0002580  36.2022 323.9144 15.08854847 43644,6917.835,95.437,541.485,537.915,0.0
50815.0,STARLINK-3234,PAYLOAD,2022-10-20 05:08:11,15.08854499,0.0002528,53.2177,319.881,40.3629,319.755,0.00053066,8.171e-05,0.0,0 STARLINK-3234,1 50815U 22001N   22293.21402055  .00008171  00000-0  53066-3 0  9991,2 50815  53.2177 319.8810 0002528  40.3629 319.7550 15.08854499 45010,6917.8359999999975,95.437,541.45,537.952,0.0
50815.0,STARLINK-3234,PAYLOAD,2022-10-20 11:29:44,15.088448499999998,0.0002515,53.2181,318.6938,35.0728,325.0429,9.4177e-05,1.211e-05,0.0,0 STARLINK-3234,1 50815U 22001N   22293.47898269  .00001211  00000-0  94177-4 0  9992,2 50815  53.2181 318.6938 0002515  35.0728 325.0429 15.08844850 45059,6917.866,95.437,541.47,537.991,0.0
50815.0,STARLINK-3234,PAYLOAD,2022-10-20 19:26:39,15.08844004,0.0002566,53.2182,317.2061,35.5217,324.5946,0.00016958,2.412e-05,0.0,0 STARLINK-3234,1 50815U 22001N   22293.81018330  .00002412  00000-0  16958-3 0  9997,2 50815  53.2182 317.2061 0002566  35.5217 324.5946 15.08844004 43839,6917.868,95.437,541.508,537.9580000000002,0.0
50815.0,STARLINK-3234,PAYLOAD,2022-10-21 08:09:44,15.08848879,0.0002648,53.2185,314.8269,38.0362,322.0817,0.00020635,2.998e-05,0.0,0 STARLINK-3234,1 50815U 22001N   22294.34010084  .00002998  00000-0  20635-3 0  9990,2 50815  53.2185 314.8269 0002648  38.0362 322.0817 15.08848879 43918,6917.853,95.437,541.55,537.886,0.0
50815.0,STARLINK-3234,PAYLOAD,2022-10-21 12:55:54,15.08836931,0.0002595,53.2182,313.9351,35.5764,324.5401,-2.4146e-05,-6.73e-06,0.0,0 STARLINK-3234,1 50815U 22001N   22294.53882432 -.00000673  00000-0 -24146-4 0  9997,2 50815  53.2182 313.9351 0002595  35.5764 324.5401 15.08836931 45213,6917.89,95.438,541.55,537.96,0.0
50815.0,STARLINK-3234,PAYLOAD,2022-10-22 11:11:18,15.08838313,0.0002652,53.2183,309.7723,36.3185,323.7987,4.3356e-06,-2.2e-06,0.0,0 STARLINK-3234,1 50815U 22001N   22295.46618571 -.00000220  00000-0  43356-5 0  9993,2 50815  53.2183 309.7723 0002652  36.3185 323.7987 15.08838313 44080,6917.886,95.438,541.585,537.9159999999998,0.0
50815.0,STARLINK-3234,PAYLOAD,2022-10-22 17:32:51,15.08837703,0.0002631,53.2182,308.5828,36.4106,323.7065,3.0681999999999995e-05,2e-06,0.0,0 STARLINK-3234,1 50815U 22001N   22295.73114634  .00000200  00000-0  30682-4 0  9998,2 50815  53.2182 308.5828 0002631  36.4106 323.7065 15.08837703 45397,6917.887,95.438,541.573,537.932,0.0
50815.0,STARLINK-3234,PAYLOAD,2022-10-23 04:40:32,15.08850599,0.0002583999999999,53.218,306.5015,34.7947,325.3214,0.00021384,3.118e-05,0.0,0 STARLINK-3234,1 50815U 22001N   22296.19481899  .00003118  00000-0  21384-3 0  9998,2 50815  53.2180 306.5015 0002584  34.7947 325.3214 15.08850599 45462,6917.848000000001,95.437,541.501,537.925,0.0
50815.0,STARLINK-3234,PAYLOAD,2022-10-23 11:02:05,15.0884765,0.0002975,53.2179,305.3133,33.2757,326.8422,0.00018494,2.657e-05,0.0,0 STARLINK-3234,1 50815U 22001N   22296.45978285  .00002657  00000-0  18494-3 0  9992,2 50815  53.2179 305.3133 0002975  33.2757 326.8422 15.08847650 44230,6917.857,95.437,541.78,537.664,0.0
50815.0,STARLINK-3234,PAYLOAD,2022-10-23 17:23:37,15.08845473,0.0002805,53.2181,304.1226,35.4624,324.6554,0.00015006,2.101e-05,0.0,0 STARLINK-3234,1 50815U 22001N   22296.72474072  .00002101  00000-0  15006-3 0  9997,2 50815  53.2181 304.1226 0002805  35.4624 324.6554 15.08845473 44279,6917.864000000001,95.437,541.669,537.788,0.0
50815.0,STARLINK-3234,PAYLOAD,2022-10-24 10:52:52,15.08834098,0.000256,53.2175,300.8499,33.5146,326.6008,-0.00022248,-3.827e-05,0.0,0 STARLINK-3234,1 50815U 22001N   22297.45338033 -.00003827  00000-0 -22248-3 0  9998,2 50815  53.2175 300.8499 0002560  33.5146 326.6008 15.08834098 44382,6917.898,95.438,541.534,537.992,0.0
50815.0,STARLINK-3234,PAYLOAD,2022-10-24 12:28:15,15.08829919,0.000279,53.2179,300.5541,35.5448,324.573,-0.00022457,-3.86e-05,0.0,0 STARLINK-3234,1 50815U 22001N   22297.51962360 -.00003860  00000-0 -22457-3 0  9990,2 50815  53.2179 300.5541 0002790  35.5448 324.5730 15.08829919 45660,6917.911,95.438,541.706,537.846,0.0
50815.0,STARLINK-3234,PAYLOAD,2022-10-24 17:14:24,15.08830182,0.0002678,53.2176,299.6622,34.6617,325.4549,-0.00016912,-2.978e-05,0.0,0 STARLINK-3234,1 50815U 22001N   22297.71834410 -.00002978  00000-0 -16912-3 0  9994,2 50815  53.2176 299.6622 0002678  34.6617 325.4549 15.08830182 44423,6917.91,95.438,541.628,537.923,0.0
50815.0,STARLINK-3234,PAYLOAD,2022-10-25 10:43:39,15.08831016,0.000265,53.2178,296.3912,36.5629,323.5544,-5.3607e-05,-1.141e-05,0.0,0 STARLINK-3234,1 50815U 22001N   22298.44698891 -.00001141  00000-0 -53607-4 0  9990,2 50815  53.2178 296.3912 0002650  36.5629 323.5544 15.08831016 44538,6917.908,95.438,541.606,537.94,0.0
50815.0,STARLINK-3234,PAYLOAD,2022-10-25 12:19:02,15.08831524,0.0002599,53.2175,296.0937,34.0743,326.0416,-3.1588e-05,-7.91e-06,0.0,0 STARLINK-3234,1 50815U 22001N   22298.51322905 -.00000791  00000-0 -31588-4 0  9992,2 50815  53.2175 296.0937 0002599  34.0743 326.0416 15.08831524 45813,6917.906,95.438,541.569,537.9730000000002,0.0
50815.0,STARLINK-3234,PAYLOAD,2022-10-26 10:34:27,15.08846811,0.0002621,53.2173,291.9302,35.429,324.6876,0.00059037,9.122e-05,0.0,0 STARLINK-3234,1 50815U 22001N   22299.44059148  .00009122  00000-0  59037-3 0  9994,2 50815  53.2173 291.9302 0002621  35.4290 324.6876 15.08846811 45953,6917.86,95.437,541.538,537.911,0.0
50815.0,STARLINK-3234,PAYLOAD,2022-10-26 16:55:59,15.08854151,0.0002638,53.2174,290.7408,35.911,324.2059,0.00065002,0.00010076,0.0,0 STARLINK-3234,1 50815U 22001N   22299.70554906  .00010076  00000-0  65002-3 0  9994,2 50815  53.2174 290.7408 0002638  35.9110 324.2059 15.08854151 44721,6917.837,95.437,541.5269999999998,537.877,0.0
50815.0,STARLINK-3234,PAYLOAD,2022-10-27 05:39:04,15.08847242,0.0002651,53.2176,288.3616,38.2085,321.9095,0.00022857,3.352e-05,0.0,0 STARLINK-3234,1 50815U 22001N   22300.23546865  .00003352  00000-0  22857-3 0  9990,2 50815  53.2176 288.3616 0002651  38.2085 321.9095 15.08847242 46076,6917.858,95.437,541.557,537.889,0.0
50815.0,STARLINK-3234,PAYLOAD,2022-10-27 10:25:13,15.08849523,0.0002656,53.2177,287.4696,37.4678,322.6499,0.00028458,4.245e-05,0.0,0 STARLINK-3234,1 50815U 22001N   22300.43418791  .00004245  00000-0  28458-3 0  9993,2 50815  53.2177 287.4696 0002656  37.4678 322.6499 15.08849523 44831,6917.851,95.437,541.554,537.879,0.0
50815.0,STARLINK-3234,PAYLOAD,2022-10-27 16:46:46,15.08851973,0.000268,53.2178,286.2801,38.0072,322.1109,0.00029306,4.38e-05,0.0,0 STARLINK-3234,1 50815U 22001N   22300.69914605  .00004380  00000-0  29306-3 0  9999,2 50815  53.2178 286.2801 0002680  38.0072 322.1109 15.08851973 44878,6917.844,95.437,541.563,537.855,0.0
50815.0,STARLINK-3234,PAYLOAD,2022-10-28 10:16:00,15.08853092,0.0002702,53.218,283.009,38.8779,321.2407,0.00018813,2.708e-05,0.0,0 STARLINK-3234,1 50815U 22001N   22301.42778092  .00002708  00000-0  18813-3 0  9992,2 50815  53.2180 283.0090 0002702  38.8779 321.2407 15.08853092 46252,6917.84,95.437,541.575,537.836,0.0
50815.0,STARLINK-3234,PAYLOAD,2022-10-29 06:56:00,15.08843822,0.0002663,53.2185,279.1438,37.213,322.9046,2.647e-05,1.33e-06,0.0,0 STARLINK-3234,1 50815U 22001N   22302.28889940  .00000133  00000-0  26470-4 0  9991,2 50815  53.2185 279.1438 0002663  37.2130 322.9046 15.08843822 46380,6917.869000000002,95.437,541.576,537.891,0.0
50815.0,STARLINK-3234,PAYLOAD,2022-10-29 08:31:24,15.08844337,0.0002644,53.2191,278.8468,37.0951,323.0224,4.912e-05,4.93e-06,0.0,0 STARLINK-3234,1 50815U 22001N   22302.35513956  .00000493  00000-0  49120-4 0  9996,2 50815  53.2191 278.8468 0002644  37.0951 323.0224 15.08844337 45127,6917.8669999999975,95.437,541.561,537.903,0.0
50815.0,STARLINK-3234,PAYLOAD,2022-10-30 09:57:33,15.08846767,0.0002653,53.2186,274.0902,35.7944,324.3225,1.7997e-05,-2e-08,0.0,0 STARLINK-3234,1 50815U 22001N   22303.41497314 -.00000002  00000-0  17997-4 0  9997,2 50815  53.2186 274.0902 0002653  35.7944 324.3225 15.08846767 45280,6917.86,95.437,541.56,537.889,0.0
50815.0,STARLINK-3234,PAYLOAD,2022-10-30 14:43:43,15.08846515,0.0002748999999999,53.2189,273.1978,36.4579,323.66,3.5898000000000008e-06,-2.31e-06,0.0,0 STARLINK-3234,1 50815U 22001N   22303.61369313 -.00000231  00000-0  35898-5 0  9991,2 50815  53.2189 273.1978 0002749  36.4579 323.6600 15.08846515 45318,6917.86,95.437,541.627,537.8240000000002,0.0
50815.0,STARLINK-3234,PAYLOAD,2022-10-31 08:12:57,15.08838839,0.0002435,53.2199,269.9285,39.4126,320.7043,9.3049e-05,1.193e-05,0.0,0 STARLINK-3234,1 50815U 22001N   22304.34233754  .00001193  00000-0  93049-4 0  9999,2 50815  53.2199 269.9285 0002435  39.4126 320.7043 15.08838839 45427,6917.884,95.438,541.433,538.064,0.0
50815.0,STARLINK-3234,PAYLOAD,2022-10-31 14:34:30,15.08833349,0.0002524,53.2183,268.7378,34.9381,325.1777,-4.973600000000001e-05,-1.0800000000000003e-05,0.0,0 STARLINK-3234,1 50815U 22001N   22304.60729983 -.00001080  00000-0 -49736-4 0  9993,2 50815  53.2183 268.7378 0002524  34.9381 325.1777 15.08833349 45460,6917.901,95.438,541.512,538.02,0.0
50815.0,STARLINK-3234,PAYLOAD,2022-11-01 08:03:45,15.08842031,0.0002483,53.2193,265.4665,34.5937,325.5216,-4.0206000000000004e-07,-2.95e-06,0.0,0 STARLINK-3234,1 50815U 22001N   22305.33594060 -.00000295  00000-0 -40206-6 0  9992,2 50815  53.2193 265.4665 0002483  34.5937 325.5216 15.08842031 45573,6917.874,95.437,541.457,538.021,0.0
